[{"OBJECT_NAME":"STARLINK-35417","OBJECT_ID":"2025-253S","EPOCH":"2025-11-18T04:00:03.000096","MEAN_MOTION":15.80298806,"ECCENTRICITY":0.0001805,"INCLINATION":42.9959,"RA_OF_ASC_NODE":129.7233,"ARG_OF_PERICENTER":274.1029,"MEAN_ANOMALY":84.3638,"EPHEMERIS_TYPE":0,"CLASSIFICATION_TYPE":"U","NORAD_CAT_ID":66335,"ELEMENT_SET_NO":999,"REV_AT_EPOCH":297,"BSTAR":-0.011218,"MEAN_MOTION_DOT":-0.01902765,"MEAN_MOTION_DDOT":0},{"OBJECT_NAME":"STARLINK-35404","OBJECT_ID":"2025-253T","EPOCH":"2025-11-18T04:00:03.000096","MEAN_MOTION":15.80361428,"ECCENTRICITY":0.0001801,"INCLINATION":42.9958,"RA_OF_ASC_NODE":129.7395,"ARG_OF_PERICENTER":274.4293,"MEAN_ANOMALY":77.7265,"EPHEMERIS_TYPE":0,"CLASSIFICATION_TYPE":"U","NORAD_CAT_ID":66336,"ELEMENT_SET_NO":999,"REV_AT_EPOCH":307,"BSTAR":-0.011047,"MEAN_MOTION_DOT":-0.01882236,"MEAN_MOTION_DDOT":0},{"OBJECT_NAME":"STARLINK-34783","OBJECT_ID":"2025-253U","EPOCH":"2025-11-18T04:00:03.000096","MEAN_MOTION":15.80204052,"ECCENTRICITY":0.0001736,"INCLINATION":42.9959,"RA_OF_ASC_NODE":129.717,"ARG_OF_PERICENTER":276.252,"MEAN_ANOMALY":84.7814,"EPHEMERIS_TYPE":0,"CLASSIFICATION_TYPE":"U","NORAD_CAT_ID":66337,"ELEMENT_SET_NO":999,"REV_AT_EPOCH":302,"BSTAR":-0.011449,"MEAN_MOTION_DOT":-0.01929225,"MEAN_MOTION_DDOT":0},{"OBJECT_NAME":"STARLINK-35477","OBJECT_ID":"2025-253V","EPOCH":"2025-11-18T04:00:03.000096","MEAN_MOTION":15.80285998,"ECCENTRICITY":0.0001764,"INCLINATION":42.9956,"RA_OF_ASC_NODE":129.7291,"ARG_OF_PERICENTER":276.9545,"MEAN_ANOMALY":79.6106,"EPHEMERIS_TYPE":0,"CLASSIFICATION_TYPE":"U","NORAD_CAT_ID":66338,"ELEMENT_SET_NO":999,"REV_AT_EPOCH":307,"BSTAR":-0.011214,"MEAN_MOTION_DOT":-0.01901159,"MEAN_MOTION_DDOT":0},{"OBJECT_NAME":"STARLINK-35443","OBJECT_ID":"2025-253W","EPOCH":"2025-11-18T04:00:03.000096","MEAN_MOTION":15.79794484,"ECCENTRICITY":0.0001754,"INCLINATION":42.9956,"RA_OF_ASC_NODE":129.6957,"ARG_OF_PERICENTER":275.2812,"MEAN_ANOMALY":93.9288,"EPHEMERIS_TYPE":0,"CLASSIFICATION_TYPE":"U","NORAD_CAT_ID":66339,"ELEMENT_SET_NO":999,"REV_AT_EPOCH":302,"BSTAR":-0.013037,"MEAN_MOTION_DOT":-0.02170001,"MEAN_MOTION_DDOT":0},{"OBJECT_NAME":"STARLINK-35218","OBJECT_ID":"2025-253X","EPOCH":"2025-11-18T04:00:03.000096","MEAN_MOTION":15.8030961,"ECCENTRICITY":0.0001873,"INCLINATION":42.9957,"RA_OF_ASC_NODE":129.7334,"ARG_OF_PERICENTER":273.1872,"MEAN_ANOMALY":81.2561,"EPHEMERIS_TYPE":0,"CLASSIFICATION_TYPE":"U","NORAD_CAT_ID":66340,"ELEMENT_SET_NO":999,"REV_AT_EPOCH":307,"BSTAR":-0.011146,"MEAN_MOTION_DOT":-0.01893067,"MEAN_MOTION_DDOT":0},{"OBJECT_NAME":"STARLINK-35522","OBJECT_ID":"2025-253Y","EPOCH":"2025-11-18T04:00:03.000096","MEAN_MOTION":15.80486448,"ECCENTRICITY":0.0001707,"INCLINATION":42.9965,"RA_OF_ASC_NODE":129.7573,"ARG_OF_PERICENTER":271.281,"MEAN_ANOMALY":74.1805,"EPHEMERIS_TYPE":0,"CLASSIFICATION_TYPE":"U","NORAD_CAT_ID":66341,"ELEMENT_SET_NO":999,"REV_AT_EPOCH":307,"BSTAR":-0.01079,"MEAN_MOTION_DOT":-0.01853335,"MEAN_MOTION_DDOT":0},{"OBJECT_NAME":"STARLINK-35535","OBJECT_ID":"2025-253Z","EPOCH":"2025-11-18T04:00:03.000096","MEAN_MOTION":15.79849076,"ECCENTRICITY":0.0001913,"INCLINATION":42.9957,"RA_OF_ASC_NODE":129.701,"ARG_OF_PERICENTER":270.177,"MEAN_ANOMALY":96.8451,"EPHEMERIS_TYPE":0,"CLASSIFICATION_TYPE":"U","NORAD_CAT_ID":66342,"ELEMENT_SET_NO":999,"REV_AT_EPOCH":297,"BSTAR":-0.012886,"MEAN_MOTION_DOT":-0.02152998,"MEAN_MOTION_DDOT":0},{"OBJECT_NAME":"STARLINK-35467","OBJECT_ID":"2025-253AA","EPOCH":"2025-11-18T04:00:03.000096","MEAN_MOTION":15.79901076,"ECCENTRICITY":0.0001875,"INCLINATION":42.9954,"RA_OF_ASC_NODE":129.7067,"ARG_OF_PERICENTER":271.8541,"MEAN_ANOMALY":92.9131,"EPHEMERIS_TYPE":0,"CLASSIFICATION_TYPE":"U","NORAD_CAT_ID":66343,"ELEMENT_SET_NO":999,"REV_AT_EPOCH":297,"BSTAR":-0.012564,"MEAN_MOTION_DOT":-0.02064671,"MEAN_MOTION_DDOT":0},{"OBJECT_NAME":"STARLINK-35511","OBJECT_ID":"2025-253AB","EPOCH":"2025-11-18T04:00:03.000096","MEAN_MOTION":15.79653734,"ECCENTRICITY":0.0001872,"INCLINATION":42.9961,"RA_OF_ASC_NODE":129.6801,"ARG_OF_PERICENTER":274.4295,"MEAN_ANOMALY":101.196,"EPHEMERIS_TYPE":0,"CLASSIFICATION_TYPE":"U","NORAD_CAT_ID":66344,"ELEMENT_SET_NO":999,"REV_AT_EPOCH":297,"BSTAR":-0.013405,"MEAN_MOTION_DOT":-0.02210819,"MEAN_MOTION_DDOT":0},{"OBJECT_NAME":"STARLINK-35440","OBJECT_ID":"2025-253AC","EPOCH":"2025-11-18T04:00:03.000096","MEAN_MOTION":15.79763748,"ECCENTRICITY":0.0001918,"INCLINATION":42.9953,"RA_OF_ASC_NODE":129.6883,"ARG_OF_PERICENTER":271.7778,"MEAN_ANOMALY":99.5178,"EPHEMERIS_TYPE":0,"CLASSIFICATION_TYPE":"U","NORAD_CAT_ID":66345,"ELEMENT_SET_NO":999,"REV_AT_EPOCH":297,"BSTAR":-0.013156,"MEAN_MOTION_DOT":-0.02184751,"MEAN_MOTION_DDOT":0},{"OBJECT_NAME":"STARLINK-35482","OBJECT_ID":"2025-253AD","EPOCH":"2025-11-18T04:00:03.000096","MEAN_MOTION":15.7972642,"ECCENTRICITY":0.0001805,"INCLINATION":42.9952,"RA_OF_ASC_NODE":129.6844,"ARG_OF_PERICENTER":275.9397,"MEAN_ANOMALY":97.4434,"EPHEMERIS_TYPE":0,"CLASSIFICATION_TYPE":"U","NORAD_CAT_ID":66346,"ELEMENT_SET_NO":999,"REV_AT_EPOCH":307,"BSTAR":-0.01323,"MEAN_MOTION_DOT":-0.02191983,"MEAN_MOTION_DDOT":0},{"OBJECT_NAME":"STARLINK-35438","OBJECT_ID":"2025-253AE","EPOCH":"2025-11-18T04:00:03.000096","MEAN_MOTION":15.7967142,"ECCENTRICITY":0.0001781,"INCLINATION":42.9955,"RA_OF_ASC_NODE":129.6739,"ARG_OF_PERICENTER":272.5507,"MEAN_ANOMALY":104.9438,"EPHEMERIS_TYPE":0,"CLASSIFICATION_TYPE":"U","NORAD_CAT_ID":66347,"ELEMENT_SET_NO":999,"REV_AT_EPOCH":297,"BSTAR":-0.013406,"MEAN_MOTION_DOT":-0.02212513,"MEAN_MOTION_DDOT":0}]
